{
 "type": "FeatureCollection",
 "features": [
  {
   "type": "Feature",
   "properties": {
    "name": "J4",
    "cell": "J4"
   },
   "geometry": {
    "type": "Polygon",
    "coordinates": [
     [
      [
       28.860917,
       47.4049
      ],
      [
       28.8672,
       47.407147
      ],
      [
       28.872487,
       47.401735
      ],
      [
       28.868142,
       47.397103
      ],
      [
       28.860917,
       47.4049
      ]
     ]
    ]
   }
  },
  {
   "type": "Feature",
   "properties": {
    "name": "K10",
    "cell": "K9-K10"
   },
   "geometry": {
    "type": "Polygon",
    "coordinates": [
     [
      [
       28.884277,
       47.362262
      ],
      [
       28.88763,
       47.3625
      ],
      [
       28.888135,
       47.356211
      ],
      [
       28.884058,
       47.356129
      ],
      [
       28.884277,
       47.362262
      ]
     ]
    ]
   }
  },
  {
   "type": "Feature",
   "properties": {
    "name": "D3",
    "cell": "C3-D3"
   },
   "geometry": {
    "type": "Polygon",
    "coordinates": [
     [
      [
       28.783351,
       47.41904
      ],
      [
       28.787017,
       47.420213
      ],
      [
       28.789804,
       47.420334
      ],
      [
       28.794673,
       47.4167
      ],
      [
       28.794192,
       47.415966
      ],
      [
       28.784179,
       47.416462
      ],
      [
       28.783351,
       47.41904
      ]
     ]
    ]
   }
  }
 ]
}