{
 "type": "FeatureCollection",
 "features": [
  {
   "type": "Feature",
   "properties": {
    "parcel_id": "demo1",
    "name": "Orhei NE (J4)",
    "crop": "maize",
    "crop_source": "assumed from the calendar, not confirmed"
   },
   "geometry": {
    "type": "Polygon",
    "coordinates": [
     [
      [
       28.860917,
       47.4049
      ],
      [
       28.8672,
       47.407147
      ],
      [
       28.872487,
       47.401735
      ],
      [
       28.868142,
       47.397103
      ],
      [
       28.860917,
       47.4049
      ]
     ]
    ]
   }
  }
 ]
}